{"type":"FeatureCollection","features":[{"type":"Feature","geometry":{"type":"Polygon","coordinates":[[[34.475744757447586,31.585473892707697],[34.52254522545226,31.542073806363078],[34.526145261452626,31.52644977527902],[34.349743497434986,31.363265450623274],[34.349743497434986,31.29208930901811],[34.24534245342454,31.208761143236444],[34.21294212942129,31.29208930901811],[34.198541985419865,31.323337371186227],[34.38574385743857,31.4830496889344],[34.475744757447586,31.585473892707697]]]},"properties":{"id":"PSE-GAZA","name":"Gaza Strip","countryIso3":"PSE","countryIso2":"PS","regionType":"Territory"}},{"type":"Feature","geometry":{"type":"Polygon","coordinates":[[[35.55215552155522,32.39618750562508],[35.57375573755738,32.23821119133068],[35.53415534155343,32.10280292193549],[35.530555305553065,31.984754687078137],[35.55935559355595,31.766018251901286],[35.49815498154982,31.67227406539692],[35.4657546575466,31.562905847808494],[35.45135451354514,31.479577682026843],[35.40815408154083,31.4830496889344],[35.2749527495275,31.42228956805195],[35.102151021510224,31.366737457530846],[34.90774907749079,31.351113426446787],[34.87894878948791,31.36847346098463],[34.87174871748718,31.396249516245177],[34.92934929349295,31.53686579600172],[34.9509495094951,31.60283392724554],[35.03375033750339,31.674010068850706],[35.152551525515264,31.73477018973317],[35.202952029520304,31.750394220817228],[35.19935199351994,31.776434272623987],[35.127351273512744,31.816362352061034],[35.051750517505184,31.83719439350645],[34.98334983349835,31.816362352061034],[34.961749617496196,31.823306365876178],[34.95454954549547,31.840666400414023],[34.97974979749799,31.866706452220782],[34.99054990549905,31.913578545472973],[34.97974979749799,31.99169870089328],[34.97254972549726,32.08717889085142],[34.95454954549547,32.16009103591037],[34.99774997749978,32.281611277675296],[35.012150121501236,32.33889939165019],[35.06615066150661,32.4604196334151],[35.19215192151921,32.535067781927836],[35.303753037530385,32.512499737028634],[35.36135361353615,32.507291726667276],[35.38655386553867,32.493403699037],[35.4009540095401,32.4500036126924],[35.48375483754839,32.40139551598642],[35.55215552155522,32.39618750562508]]]},"properties":{"id":"PSE-WBK","name":"West Bank","countryIso3":"PSE","countryIso2":"PS","regionType":"Territory"}}]}